{
  "norad_id": 62749,
  "name": "STARLINK-32761",
  "history": [
    {
      "epoch": "2026-03-28T14:45:13.510944",
      "apogee_km": 483.8169494461463,
      "perigee_km": 482.1716501604533,
      "latitude_deg": -42.78577636088469,
      "longitude_deg": 153.91501215985045,
      "semi_major_axis_km": 6861.131299803299,
      "eccentricity": 0.0001199,
      "inclination_deg": 43.0024,
      "raan_deg": 50.8079,
      "arg_perigee_deg": 271.8396,
      "mean_anomaly_deg": 88.2318,
      "mean_motion_rev_day": 15.275983
    },
    {
      "epoch": "2026-03-29T04:52:37.256736",
      "apogee_km": 484.0955126926201,
      "perigee_km": 481.72845079391936,
      "latitude_deg": 42.74378031700694,
      "longitude_deg": -149.5919369601179,
      "semi_major_axis_km": 6861.04898174327,
      "eccentricity": 0.0001725,
      "inclination_deg": 43.0022,
      "raan_deg": 47.4848,
      "arg_perigee_deg": 264.6844,
      "mean_anomaly_deg": 95.3811,
      "mean_motion_rev_day": 15.27625792
    }
  ]
}